H1 CPF 01  gfz 2021 01 30 13  5302 tandemx   
H2 1003001  6202 36605    2021 01 30 12 59 42 2021 02 04 00 00 42   120 1 1  0 0 0
H9
10 0 59246  23022.000000  0    5900084.136   -112259.722   3545434.965
10 0 59246  23142.000000  0    6307865.376   -312962.909   2743293.563
10 0 59246  23262.000000  0    6601835.644   -514335.160   1892844.260
10 0 59246  23382.000000  0    6776894.039   -710819.154   1009063.062
10 0 59246  23502.000000  0    6830136.904   -896875.383    107516.051
10 0 59246  23622.000000  0    6760909.990  -1067119.658   -795923.777
10 0 59246  23742.000000  0    6570812.995  -1216458.356  -1685365.456
10 0 59246  23862.000000  0    6263659.406  -1340217.209  -2545187.833
10 0 59246  23982.000000  0    5845391.687  -1434260.807  -3360320.028
10 0 59246  24102.000000  0    5323955.701  -1495099.713  -4116508.464
10 0 59246  24222.000000  0    4709137.924  -1519982.236  -4800565.306
10 0 59246  24342.000000  0    4012370.582  -1506969.560  -5400594.210
10 0 59246  24462.000000  0    3246508.689  -1454993.358  -5906189.813
10 0 59246  24582.000000  0    2425585.398  -1363893.857  -6308607.334
10 0 59246  24702.000000  0    1564551.965  -1234437.520  -6600902.834
10 0 59246  24822.000000  0     679005.122  -1068315.349  -6778042.313
10 0 59246  24942.000000  0    -215092.076   -868122.422  -6836979.128
10 0 59246  25062.000000  0   -1101692.129   -637317.769  -6776700.167
10 0 59246  25182.000000  0   -1964944.303   -380165.946  -6598241.754
10 0 59246  25302.000000  0   -2789471.813   -101660.196  -6304672.824
10 0 59246  25422.000000  0   -3560639.154    192570.599  -5901047.387
10 0 59246  25542.000000  0   -4264809.279    496371.001  -5394327.961
10 0 59246  25662.000000  0   -4889586.174    803181.914  -4793276.075
10 0 59246  25782.000000  0   -5424038.225   1106175.616  -4108313.534
10 0 59246  25902.000000  0   -5858899.082   1398402.116  -3351352.128
10 0 59246  26022.000000  0   -6186739.229   1672941.959  -2535594.038
10 0 59246  26142.000000  0   -6402105.218   1923062.390  -1675306.113
10 0 59246  26262.000000  0   -6501622.923   2142373.993   -785571.116
10 0 59246  26382.000000  0   -6484060.566   2324983.229    117980.776
10 0 59246  26502.000000  0   -6350348.411   2465636.603   1019453.633
10 0 59246  26622.000000  0   -6103554.784   2559853.615   1902973.540
10 0 59246  26742.000000  0   -5748818.760   2604044.652   2752977.485
10 0 59246  26862.000000  0   -5293241.163   2595609.940   3554495.682
10 0 59246  26982.000000  0   -4745736.804   2533016.998   4293422.286
10 0 59246  27102.000000  0   -4116851.594   2415855.251   4956766.574
10 0 59246  27222.000000  0   -3418551.546   2244867.084   5532881.194
10 0 59246  27342.000000  0   -2663987.641   2021955.064   6011665.018
10 0 59246  27462.000000  0   -1867240.405   1750164.513   6384736.436
10 0 59246  27582.000000  0   -1043051.324   1433641.776   6645574.055
10 0 59246  27702.000000  0    -206547.227   1077569.735   6789623.229
10 0 59246  27822.000000  0     627036.987    688081.935   6814370.101
10 0 59246  27942.000000  0    1442634.888    272156.718   6719382.606
10 0 59246  28062.000000  0    2225619.492   -162507.074   6506317.624
10 0 59246  28182.000000  0    2962064.947   -607631.892   6178895.027
10 0 59246  28302.000000  0    3638995.799  -1054517.935   5742837.384
10 0 59246  28422.000000  0    4244619.318  -1494212.009   5205775.374
10 0 59246  28542.000000  0    4768535.465  -1917686.348   4577119.830
10 0 59246  28662.000000  0    5201922.597  -2316023.137   3867902.984
10 0 59246  28782.000000  0    5537695.374  -2680602.158   3090588.251
10 0 59246  28902.000000  0    5770628.240  -3003286.714   2258850.526
10 0 59246  29022.000000  0    5897442.153  -3276603.129   1387333.649
10 0 59246  29142.000000  0    5916854.350  -3493910.625    491387.819
10 0 59246  29262.000000  0    5829586.569  -3649555.364   -413208.706
10 0 59246  29382.000000  0    5638333.834  -3739005.928  -1310536.206
10 0 59246  29502.000000  0    5347691.696  -3758965.080  -2184823.367
10 0 59246  29622.000000  0    4964046.108  -3707456.241  -3020731.159
10 0 59246  29742.000000  0    4495429.081  -3583883.280  -3803626.628
10 0 59246  29862.000000  0    3951343.589  -3389061.632  -4519840.146
10 0 59246  29982.000000  0    3342563.119  -3125220.569  -5156901.570
10 0 59246  30102.000000  0    2680911.230  -2795976.685  -5703750.322
10 0 59246  30222.000000  0    1979027.869  -2406281.901  -6150916.955
10 0 59246  30342.000000  0    1250126.729  -1962346.745  -6490677.447
10 0 59246  30462.000000  0     507746.126  -1471537.897  -6717176.713
10 0 59246  30582.000000  0    -234499.839   -942254.655  -6826518.578
10 0 59246  30702.000000  0    -963165.709   -383786.661  -6816824.565
10 0 59246  30822.000000  0   -1665212.252    193845.559  -6688262.444
10 0 59246  30942.000000  0   -2328234.499    780065.947  -6443042.880
10 0 59246  31062.000000  0   -2940675.762   1363931.299  -6085385.455
10 0 59246  31182.000000  0   -3492025.946   1934330.423  -5621454.404
10 0 59246  31302.000000  0   -3973003.031   2480191.803  -5059264.236
10 0 59246  31422.000000  0   -4375714.011   2990697.070  -4408552.537
10 0 59246  31542.000000  0   -4693790.211   3455495.133  -3680621.108
10 0 59246  31662.000000  0   -4922494.996   3864913.423  -2888149.452
10 0 59246  31782.000000  0   -5058801.987   4210161.932  -2044979.924
10 0 59246  31902.000000  0   -5101440.364   4483524.152  -1165878.645
10 0 59246  32022.000000  0   -5050906.638   4678531.108   -266275.520
10 0 59246  32142.000000  0   -4909440.390   4790113.357    638011.958
10 0 59246  32262.000000  0   -4680964.308   4814725.815   1531065.286
10 0 59246  32382.000000  0   -4370989.609   4750441.261   2397155.016
10 0 59246  32502.000000  0   -3986488.294   4597011.353   3221026.680
10 0 59246  32622.000000  0   -3535737.130   4355893.376   3988176.261
10 0 59246  32742.000000  0   -3028138.097   4030242.233   4685109.947
10 0 59246  32862.000000  0   -2474019.213   3624868.442   5299583.928
10 0 59246  32982.000000  0   -1884420.002   3146162.514   5820818.681
10 0 59246  33102.000000  0   -1270867.488   2601988.501   6239684.286
10 0 59246  33222.000000  0    -645147.708   2001548.806   6548853.923
10 0 59246  33342.000000  0     -19079.445   1355224.948   6742924.869
10 0 59246  33462.000000  0     595708.842    674395.771   6818508.201
10 0 59246  33582.000000  0    1187994.419    -28763.339   6774283.452
10 0 59246  33702.000000  0    1747163.980   -741497.230   6611020.803
10 0 59246  33822.000000  0    2263403.394  -1450702.007   6331568.973
10 0 59246  33942.000000  0    2727870.471  -2143165.063   5940809.376
10 0 59246  34062.000000  0    3132848.990  -2805812.123   5445576.335
10 0 59246  34182.000000  0    3471879.770  -3425955.854   4854543.143
10 0 59246  34302.000000  0    3739867.314  -3991542.297   4178076.058
10 0 59246  34422.000000  0    3933160.255  -4491390.192   3428056.501
10 0 59246  34542.000000  0    4049602.266  -4915417.857   2617673.904
10 0 59246  34662.000000  0    4088553.192  -5254852.349   1761192.574
10 0 59246  34782.000000  0    4050879.086  -5502415.202    873696.233
10 0 59246  34902.000000  0    3938910.700  -5652479.508    -29184.402
10 0 59246  35022.000000  0    3756373.012  -5701195.365   -931553.989
10 0 59246  35142.000000  0    3508285.694  -5646580.675  -1817542.269
10 0 59246  35262.000000  0    3200837.203  -5488572.544  -2671591.001
10 0 59246  35382.000000  0    2841237.548  -5229040.862  -3478733.459
10 0 59246  35502.000000  0    2437551.550  -4871762.264  -4224860.282
10 0 59246  35622.000000  0    1998518.050  -4422356.566  -4896965.039
10 0 59246  35742.000000  0    1533360.949  -3888187.991  -5483365.484
10 0 59246  35862.000000  0    1051596.890  -3278235.033  -5973897.825
10 0 59246  35982.000000  0     562842.101  -2602932.708  -6360082.395
10 0 59246  36102.000000  0      76622.621  -1873989.553  -6635259.185
10 0 59246  36222.000000  0    -397807.590  -1104182.760  -6794691.823
10 0 59246  36342.000000  0    -851637.691   -307135.626  -6835640.381
10 0 59246  36462.000000  0   -1276659.089    502919.226  -6757402.617
10 0 59246  36582.000000  0   -1665410.490   1311387.283  -6561324.035
10 0 59246  36702.000000  0   -2011305.659   2103568.520  -6250777.101
10 0 59246  36822.000000  0   -2308743.409   2864918.086  -5831110.391
10 0 59246  36942.000000  0   -2553198.730   3581310.227  -5309566.557
10 0 59246  37062.000000  0   -2741292.770   4239299.856  -4695169.033
10 0 59246  37182.000000  0   -2870841.341   4826378.382  -3998576.942
10 0 59246  37302.000000  0   -2940879.100   5331216.855  -3231908.571
10 0 59246  37422.000000  0   -2951658.898   5743890.913  -2408538.370
10 0 59246  37542.000000  0   -2904627.514   6056086.061  -1542869.026
10 0 59246  37662.000000  0   -2802375.596   6261274.821   -650078.684
10 0 59246  37782.000000  0   -2648564.111   6354859.492    254147.476
10 0 59246  37902.000000  0   -2447830.032   6334282.107   1153898.822
10 0 59246  38022.000000  0   -2205668.983   6199091.286   2033331.186
10 0 59246  38142.000000  0   -1928299.619   5950963.640   2876955.531
10 0 59246  38262.000000  0   -1622515.085   5593682.965   3669917.881
10 0 59246  38382.000000  0   -1295525.218   5133078.116   4398266.006
10 0 59246  38502.000000  0    -954792.934   4576920.461   5049198.561
10 0 59246  38622.000000  0    -607866.939   3934782.929   5611289.995
10 0 59246  38742.000000  0    -262218.270   3217866.961   6074687.686
10 0 59246  38862.000000  0      74917.374   2438798.621   6431280.262
10 0 59246  38982.000000  0     396688.370   1611400.692   6674833.056
10 0 59246  39102.000000  0     696764.459    750443.651   6801091.761
10 0 59246  39222.000000  0     969459.554   -128619.365   6807851.047
10 0 59246  39342.000000  0    1209838.423  -1009928.648   6694991.368
10 0 59246  39462.000000  0    1413805.790  -1877503.879   6464481.627
99
